{
  "type": "FeatureCollection",
  "features": [
    {
      "type": "Feature",
      "properties": {
        "norad_id": 55973,
        "name": "TIANMU-1 03",
        "group": "weather",
        "lat": -55.0925362095699,
        "lon": -29.764351965444902,
        "alt_km": 451.8463732844448,
        "timestamp": "2025-12-24T03:53:29.285412+00:00",
        "meta_object_name": "TIANMU-1 03",
        "meta_object_id": "2023-039A",
        "meta_epoch": "2025-12-23T20:38:19.980672",
        "meta_mean_motion": 15.41236851,
        "meta_eccentricity": 0.0003867,
        "meta_inclination": 97.5112,
        "meta_ra_of_asc_node": 160.8244,
        "meta_arg_of_pericenter": 28.8575,
        "meta_mean_anomaly": 331.2885,
        "meta_ephemeris_type": 0,
        "meta_classification_type": "U",
        "meta_norad_cat_id": 55973,
        "meta_element_set_no": 999,
        "meta_rev_at_epoch": 15377,
        "meta_bstar": 0.00036969,
        "meta_mean_motion_dot": 0.00015291,
        "meta_mean_motion_ddot": 0,
        "tle_line1": "1 55973U 23039A   25357.85995348  .00015291  00000+0  36969-3 0  9992",
        "tle_line2": "2 55973  97.5112 160.8244 0003867  28.8575 331.2885 15.41236851153779"
      },
      "geometry": {
        "type": "Point",
        "coordinates": [
          -29.764351965444902,
          -55.0925362095699
        ]
      }
    },
    {
      "type": "Feature",
      "properties": {
        "norad_id": 55974,
        "name": "TIANMU-1 04",
        "group": "weather",
        "lat": 3.50530540180533,
        "lon": 159.85876739011306,
        "alt_km": 441.14783998763323,
        "timestamp": "2025-12-24T03:53:29.285423+00:00",
        "meta_object_name": "TIANMU-1 04",
        "meta_object_id": "2023-039B",
        "meta_epoch": "2025-12-23T20:05:12.948288",
        "meta_mean_motion": 15.41578927,
        "meta_eccentricity": 0.0004477,
        "meta_inclination": 97.5044,
        "meta_ra_of_asc_node": 159.9872,
        "meta_arg_of_pericenter": 22.0399,
        "meta_mean_anomaly": 338.104,
        "meta_ephemeris_type": 0,
        "meta_classification_type": "U",
        "meta_norad_cat_id": 55974,
        "meta_element_set_no": 999,
        "meta_rev_at_epoch": 15377,
        "meta_bstar": 0.0003693,
        "meta_mean_motion_dot": 0.00015451,
        "meta_mean_motion_ddot": 0,
        "tle_line1": "1 55974U 23039B   25357.83695542  .00015451  00000+0  36930-3 0  9990",
        "tle_line2": "2 55974  97.5044 159.9872 0004477  22.0399 338.1040 15.41578927153770"
      },
      "geometry": {
        "type": "Point",
        "coordinates": [
          159.85876739011306,
          3.50530540180533
        ]
      }
    },
    {
      "type": "Feature",
      "properties": {
        "norad_id": 55975,
        "name": "TIANMU-1 05",
        "group": "weather",
        "lat": 19.55351506862871,
        "lon": 158.12902250848836,
        "alt_km": 440.36677805317413,
        "timestamp": "2025-12-24T03:53:29.285433+00:00",
        "meta_object_name": "TIANMU-1 05",
        "meta_object_id": "2023-039C",
        "meta_epoch": "2025-12-23T21:34:23.562048",
        "meta_mean_motion": 15.41194773,
        "meta_eccentricity": 0.0004005,
        "meta_inclination": 97.5091,
        "meta_ra_of_asc_node": 160.5437,
        "meta_arg_of_pericenter": 47.4419,
        "meta_mean_anomaly": 312.7165,
        "meta_ephemeris_type": 0,
        "meta_classification_type": "U",
        "meta_norad_cat_id": 55975,
        "meta_element_set_no": 999,
        "meta_rev_at_epoch": 15376,
        "meta_bstar": 0.00036314,
        "meta_mean_motion_dot": 0.00014997,
        "meta_mean_motion_ddot": 0,
        "tle_line1": "1 55975U 23039C   25357.89888382  .00014997  00000+0  36314-3 0  9993",
        "tle_line2": "2 55975  97.5091 160.5437 0004005  47.4419 312.7165 15.41194773153767"
      },
      "geometry": {
        "type": "Point",
        "coordinates": [
          158.12902250848836,
          19.55351506862871
        ]
      }
    },
    {
      "type": "Feature",
      "properties": {
        "norad_id": 55976,
        "name": "TIANMU-1 06",
        "group": "weather",
        "lat": -6.360194330797116,
        "lon": 162.1313388712806,
        "alt_km": 443.17975500249304,
        "timestamp": "2025-12-24T03:53:29.285443+00:00",
        "meta_object_name": "TIANMU-1 06",
        "meta_object_id": "2023-039D",
        "meta_epoch": "2025-12-23T20:07:48.767232",
        "meta_mean_motion": 15.41630373,
        "meta_eccentricity": 0.0004258,
        "meta_inclination": 97.5102,
        "meta_ra_of_asc_node": 160.9561,
        "meta_arg_of_pericenter": 41.5889,
        "meta_mean_anomaly": 318.5681,
        "meta_ephemeris_type": 0,
        "meta_classification_type": "U",
        "meta_norad_cat_id": 55976,
        "meta_element_set_no": 999,
        "meta_rev_at_epoch": 15377,
        "meta_bstar": 0.00037157,
        "meta_mean_motion_dot": 0.00015573,
        "meta_mean_motion_ddot": 0,
        "tle_line1": "1 55976U 23039D   25357.83875888  .00015573  00000+0  37157-3 0  9992",
        "tle_line2": "2 55976  97.5102 160.9561 0004258  41.5889 318.5681 15.41630373153778"
      },
      "geometry": {
        "type": "Point",
        "coordinates": [
          162.1313388712806,
          -6.360194330797116
        ]
      }
    },
    {
      "type": "Feature",
      "properties": {
        "norad_id": 56232,
        "name": "FENGYUN 3G",
        "group": "weather",
        "lat": -31.599804135306936,
        "lon": 137.36674317020436,
        "alt_km": 410.60100334035724,
        "timestamp": "2025-12-24T03:53:29.285456+00:00",
        "meta_object_name": "FENGYUN 3G",
        "meta_object_id": "2023-055A",
        "meta_epoch": "2025-12-23T20:21:44.089344",
        "meta_mean_motion": 15.54285266,
        "meta_eccentricity": 0.000919,
        "meta_inclination": 49.9923,
        "meta_ra_of_asc_node": 170.101,
        "meta_arg_of_pericenter": 198.3639,
        "meta_mean_anomaly": 161.6998,
        "meta_ephemeris_type": 0,
        "meta_classification_type": "U",
        "meta_norad_cat_id": 56232,
        "meta_element_set_no": 999,
        "meta_rev_at_epoch": 15275,
        "meta_bstar": 0.00048008,
        "meta_mean_motion_dot": 0.00031711,
        "meta_mean_motion_ddot": 0,
        "tle_line1": "1 56232U 23055A   25357.84842696  .00031711  00000+0  48008-3 0  9997",
        "tle_line2": "2 56232  49.9923 170.1010 0009190 198.3639 161.6998 15.54285266152758"
      },
      "geometry": {
        "type": "Point",
        "coordinates": [
          137.36674317020436,
          -31.599804135306936
        ]
      }
    },
    {
      "type": "Feature",
      "properties": {
        "norad_id": 57166,
        "name": "METEOR-M2 3",
        "group": "weather",
        "lat": 81.29797795873212,
        "lon": -45.29856206620097,
        "alt_km": 805.3975963808934,
        "timestamp": "2025-12-24T03:53:29.285467+00:00",
        "meta_object_name": "METEOR-M2 3",
        "meta_object_id": "2023-091A",
        "meta_epoch": "2025-12-23T20:43:13.643040",
        "meta_mean_motion": 14.24027356,
        "meta_eccentricity": 0.000331,
        "meta_inclination": 98.6363,
        "meta_ra_of_asc_node": 51.2077,
        "meta_arg_of_pericenter": 334.5144,
        "meta_mean_anomaly": 25.5871,
        "meta_ephemeris_type": 0,
        "meta_classification_type": "U",
        "meta_norad_cat_id": 57166,
        "meta_element_set_no": 999,
        "meta_rev_at_epoch": 12956,
        "meta_bstar": 2.3024e-05,
        "meta_mean_motion_dot": 9e-08,
        "meta_mean_motion_ddot": 0,
        "tle_line1": "1 57166U 23091A   25357.86335235  .00000009  00000+0  23024-4 0  9990",
        "tle_line2": "2 57166  98.6363  51.2077 0003310 334.5144  25.5871 14.24027356129560"
      },
      "geometry": {
        "type": "Point",
        "coordinates": [
          -45.29856206620097,
          81.29797795873212
        ]
      }
    },
    {
      "type": "Feature",
      "properties": {
        "norad_id": 57399,
        "name": "TIANMU-1 07",
        "group": "weather",
        "lat": -51.8156581640905,
        "lon": -141.6020193908195,
        "alt_km": 491.61633961278403,
        "timestamp": "2025-12-24T03:53:29.285478+00:00",
        "meta_object_name": "TIANMU-1 07",
        "meta_object_id": "2023-101A",
        "meta_epoch": "2025-12-23T20:35:31.884288",
        "meta_mean_motion": 15.28222926,
        "meta_eccentricity": 0.0005097,
        "meta_inclination": 97.2856,
        "meta_ra_of_asc_node": 47.4625,
        "meta_arg_of_pericenter": 53.0984,
        "meta_mean_anomaly": 307.0722,
        "meta_ephemeris_type": 0,
        "meta_classification_type": "U",
        "meta_norad_cat_id": 57399,
        "meta_element_set_no": 999,
        "meta_rev_at_epoch": 13485,
        "meta_bstar": 0.00025867,
        "meta_mean_motion_dot": 7.044e-05,
        "meta_mean_motion_ddot": 0,
        "tle_line1": "1 57399U 23101A   25357.85800792  .00007044  00000+0  25867-3 0  9996",
        "tle_line2": "2 57399  97.2856  47.4625 0005097  53.0984 307.0722 15.28222926134851"
      },
      "geometry": {
        "type": "Point",
        "coordinates": [
          -141.6020193908195,
          -51.8156581640905
        ]
      }
    }
  ]
}